[
    {
        "Altitude(m)": 703889.7375861331,
        "Argument of Periapsis(deg)": 0.007973084830638947,
        "Eccentricity": 0.0,
        "Inclination(deg)": 45.0,
        "Latitude(deg)": 27.61900910893417,
        "Longitude(deg)": 135.8263625507744,
        "Mean Anomaly(deg)": 40.80055165323657,
        "RAAN(deg)": 204.99247364097926,
        "Satellite Name": "Constellation 1 904",
        "Satellite Number": 904,
        "Semi-Major Axis(m)": 7083131.272910544,
        "Time(s)": 133
    },
    {
        "Altitude(m)": 703895.1126826566,
        "Argument of Periapsis(deg)": 0.008033032836884352,
        "Eccentricity": 0.0,
        "Inclination(deg)": 45.0,
        "Latitude(deg)": 27.655838309602114,
        "Longitude(deg)": 135.87680304998213,
        "Mean Anomaly(deg)": 40.86125279348645,
        "RAAN(deg)": 204.9924170518137,
        "Satellite Name": "Constellation 1 904",
        "Satellite Number": 904,
        "Semi-Major Axis(m)": 7083131.272910544,
        "Time(s)": 134
    },
    {
        "Altitude(m)": 703900.4946402153,
        "Argument of Periapsis(deg)": 0.008092980843129758,
        "Eccentricity": 0.0,
        "Inclination(deg)": 45.0,
        "Latitude(deg)": 27.69264584633347,
        "Longitude(deg)": 135.9272800889502,
        "Mean Anomaly(deg)": 40.92195393373636,
        "RAAN(deg)": 204.99236046264812,
        "Satellite Name": "Constellation 1 904",
        "Satellite Number": 904,
        "Semi-Major Axis(m)": 7083131.272910544,
        "Time(s)": 135
    },
    {
        "Altitude(m)": 703905.8834201777,
        "Argument of Periapsis(deg)": 0.008152928849375162,
        "Eccentricity": 0.0,
        "Inclination(deg)": 45.0,
        "Latitude(deg)": 27.729431671321976,
        "Longitude(deg)": 135.9777937278089,
        "Mean Anomaly(deg)": 40.9826550739863,
        "RAAN(deg)": 204.99230387348257,
        "Satellite Name": "Constellation 1 904",
        "Satellite Number": 904,
        "Semi-Major Axis(m)": 7083131.272910544,
        "Time(s)": 136
    },
    {
        "Altitude(m)": 703911.2789838987,
        "Argument of Periapsis(deg)": 0.008212876855620568,
        "Eccentricity": 0.0,
        "Inclination(deg)": 45.0,
        "Latitude(deg)": 27.76619573669186,
        "Longitude(deg)": 136.02834402666673,
        "Mean Anomaly(deg)": 41.04335621423619,
        "RAAN(deg)": 204.992247284317,
        "Satellite Name": "Constellation 1 904",
        "Satellite Number": 904,
        "Semi-Major Axis(m)": 7083131.272910544,
        "Time(s)": 137
    },
    {
        "Altitude(m)": 703916.681292722,
        "Argument of Periapsis(deg)": 0.008272824861865974,
        "Eccentricity": 0.0,
        "Inclination(deg)": 45.0,
        "Latitude(deg)": 27.80293799449806,
        "Longitude(deg)": 136.07893104561003,
        "Mean Anomaly(deg)": 41.10405735448605,
        "RAAN(deg)": 204.9921906951514,
        "Satellite Name": "Constellation 1 904",
        "Satellite Number": 904,
        "Semi-Major Axis(m)": 7083131.272910544,
        "Time(s)": 138
    },
    {
        "Altitude(m)": 703922.0903079638,
        "Argument of Periapsis(deg)": 0.00833277286811138,
        "Eccentricity": 0.0,
        "Inclination(deg)": 45.0,
        "Latitude(deg)": 27.839658396726012,
        "Longitude(deg)": 136.12955484470282,
        "Mean Anomaly(deg)": 41.16475849473599,
        "RAAN(deg)": 204.99213410598585,
        "Satellite Name": "Constellation 1 904",
        "Satellite Number": 904,
        "Semi-Major Axis(m)": 7083131.272910544,
        "Time(s)": 139
    },
    {
        "Altitude(m)": 703927.5059909305,
        "Argument of Periapsis(deg)": 0.008392720874356788,
        "Eccentricity": 0.0,
        "Inclination(deg)": 45.0,
        "Latitude(deg)": 27.87635689529159,
        "Longitude(deg)": 136.1802154839858,
        "Mean Anomaly(deg)": 41.225459634985846,
        "RAAN(deg)": 204.99207751682027,
        "Satellite Name": "Constellation 1 904",
        "Satellite Number": 904,
        "Semi-Major Axis(m)": 7083131.272910544,
        "Time(s)": 140
    },
    {
        "Altitude(m)": 703932.9283029111,
        "Argument of Periapsis(deg)": 0.008452668880602192,
        "Eccentricity": 0.0,
        "Inclination(deg)": 45.0,
        "Latitude(deg)": 27.913033442041314,
        "Longitude(deg)": 136.23091285537902,
        "Mean Anomaly(deg)": 41.286160775235786,
        "RAAN(deg)": 204.99202092765472,
        "Satellite Name": "Constellation 1 904",
        "Satellite Number": 904,
        "Semi-Major Axis(m)": 7083131.272910544,
        "Time(s)": 141
    },
    {
        "Altitude(m)": 703938.3572051768,
        "Argument of Periapsis(deg)": 0.008512616886847598,
        "Eccentricity": 0.0,
        "Inclination(deg)": 45.0,
        "Latitude(deg)": 27.949687988751233,
        "Longitude(deg)": 136.28164735506985,
        "Mean Anomaly(deg)": 41.34686191548562,
        "RAAN(deg)": 204.99196433848914,
        "Satellite Name": "Constellation 1 904",
        "Satellite Number": 904,
        "Semi-Major Axis(m)": 7083131.272910544,
        "Time(s)": 142
    },
    {
        "Altitude(m)": 703943.7926589843,
        "Argument of Periapsis(deg)": 0.008572564893093004,
        "Eccentricity": 0.0,
        "Inclination(deg)": 45.0,
        "Latitude(deg)": 27.986320487128427,
        "Longitude(deg)": 136.33241887492977,
        "Mean Anomaly(deg)": 41.40756305573559,
        "RAAN(deg)": 204.99190774932356,
        "Satellite Name": "Constellation 1 904",
        "Satellite Number": 904,
        "Semi-Major Axis(m)": 7083131.272910544,
        "Time(s)": 143
    },
    {
        "Altitude(m)": 703949.2346255736,
        "Argument of Periapsis(deg)": 0.008632512899338408,
        "Eccentricity": 0.0,
        "Inclination(deg)": 45.0,
        "Latitude(deg)": 28.022930888809785,
        "Longitude(deg)": 136.38322747490224,
        "Mean Anomaly(deg)": 41.46826419598547,
        "RAAN(deg)": 204.991851160158,
        "Satellite Name": "Constellation 1 904",
        "Satellite Number": 904,
        "Semi-Major Axis(m)": 7083131.272910544,
        "Time(s)": 144
    },
    {
        "Altitude(m)": 703954.6830661759,
        "Argument of Periapsis(deg)": 0.008692460905583814,
        "Eccentricity": 0.0,
        "Inclination(deg)": 45.0,
        "Latitude(deg)": 28.05951914536241,
        "Longitude(deg)": 136.43407321490528,
        "Mean Anomaly(deg)": 41.52896533623536,
        "RAAN(deg)": 204.99179457099243,
        "Satellite Name": "Constellation 1 904",
        "Satellite Number": 904,
        "Semi-Major Axis(m)": 7083131.272910544,
        "Time(s)": 145
    },
    {
        "Altitude(m)": 703960.1379419935,
        "Argument of Periapsis(deg)": 0.00875240891182922,
        "Eccentricity": 0.0,
        "Inclination(deg)": 45.0,
        "Latitude(deg)": 28.096085208283338,
        "Longitude(deg)": 136.48495615483083,
        "Mean Anomaly(deg)": 41.58966647648527,
        "RAAN(deg)": 204.99173798182687,
        "Satellite Name": "Constellation 1 904",
        "Satellite Number": 904,
        "Semi-Major Axis(m)": 7083131.272910544,
        "Time(s)": 146
    },
    {
        "Altitude(m)": 703965.599214223,
        "Argument of Periapsis(deg)": 0.008812356918074627,
        "Eccentricity": 0.0,
        "Inclination(deg)": 45.0,
        "Latitude(deg)": 28.132629028999546,
        "Longitude(deg)": 136.53587635454414,
        "Mean Anomaly(deg)": 41.65036761673515,
        "RAAN(deg)": 204.99168139266126,
        "Satellite Name": "Constellation 1 904",
        "Satellite Number": 904,
        "Semi-Major Axis(m)": 7083131.272910544,
        "Time(s)": 147
    },
    {
        "Altitude(m)": 703971.0668440429,
        "Argument of Periapsis(deg)": 0.008872304924320031,
        "Eccentricity": 0.0,
        "Inclination(deg)": 45.0,
        "Latitude(deg)": 28.16915055886822,
        "Longitude(deg)": 136.58683370578652,
        "Mean Anomaly(deg)": 41.711068756985064,
        "RAAN(deg)": 204.9916248034957,
        "Satellite Name": "Constellation 1 904",
        "Satellite Number": 904,
        "Semi-Major Axis(m)": 7083131.272910544,
        "Time(s)": 148
    },
    {
        "Altitude(m)": 703976.5407926262,
        "Argument of Periapsis(deg)": 0.008932252930565437,
        "Eccentricity": 0.0,
        "Inclination(deg)": 45.0,
        "Latitude(deg)": 28.205649749175596,
        "Longitude(deg)": 136.63782860456303,
        "Mean Anomaly(deg)": 41.771769897234954,
        "RAAN(deg)": 204.99156821433013,
        "Satellite Name": "Constellation 1 904",
        "Satellite Number": 904,
        "Semi-Major Axis(m)": 7083131.272910544,
        "Time(s)": 149
    },
    {
        "Altitude(m)": 703982.0210211155,
        "Argument of Periapsis(deg)": 0.008992200936810843,
        "Eccentricity": 0.0,
        "Inclination(deg)": 45.0,
        "Latitude(deg)": 28.24212655113839,
        "Longitude(deg)": 136.68886094255907,
        "Mean Anomaly(deg)": 41.83247103748489,
        "RAAN(deg)": 204.99151162516458,
        "Satellite Name": "Constellation 1 904",
        "Satellite Number": 904,
        "Semi-Major Axis(m)": 7083131.272910544,
        "Time(s)": 150
    },
    {
        "Altitude(m)": 703987.5074906447,
        "Argument of Periapsis(deg)": 0.009052148943056249,
        "Eccentricity": 0.0,
        "Inclination(deg)": 45.0,
        "Latitude(deg)": 28.278580915902705,
        "Longitude(deg)": 136.73993077952878,
        "Mean Anomaly(deg)": 41.893172177734755,
        "RAAN(deg)": 204.99145503599902,
        "Satellite Name": "Constellation 1 904",
        "Satellite Number": 904,
        "Semi-Major Axis(m)": 7083131.272910544,
        "Time(s)": 151
    }
]